[{"OBJECT_NAME":"THEA","OBJECT_ID":"2018-099AQ","EPOCH":"2026-03-09T22:33:02.658240","MEAN_MOTION":15.31454284,"ECCENTRICITY":0.00065849,"INCLINATION":97.4542,"RA_OF_ASC_NODE":137.8815,"ARG_OF_PERICENTER":275.4664,"MEAN_ANOMALY":84.5826,"EPHEMERIS_TYPE":0,"CLASSIFICATION_TYPE":"U","NORAD_CAT_ID":43796,"ELEMENT_SET_NO":999,"REV_AT_EPOCH":39748,"BSTAR":0.00074635274,"MEAN_MOTION_DOT":0.00022649,"MEAN_MOTION_DDOT":0},{"OBJECT_NAME":"STARLINK-34890","OBJECT_ID":"2025-216AC","EPOCH":"2026-03-09T23:25:16.027680","MEAN_MOTION":15.30175348,"ECCENTRICITY":0.00016015,"INCLINATION":53.1604,"RA_OF_ASC_NODE":331.119,"ARG_OF_PERICENTER":92.1194,"MEAN_ANOMALY":267.999,"EPHEMERIS_TYPE":0,"CLASSIFICATION_TYPE":"U","NORAD_CAT_ID":65760,"ELEMENT_SET_NO":999,"REV_AT_EPOCH":2658,"BSTAR":0.0011263314,"MEAN_MOTION_DOT":0.00033123,"MEAN_MOTION_DDOT":0}]
